NORAD_CAT_ID,OBJECT_NAME,OBJECT_TYPE,EPOCH,MEAN_MOTION,ECCENTRICITY,INCLINATION,RA_OF_ASC_NODE,ARG_OF_PERICENTER,MEAN_ANOMALY,BSTAR,MEAN_MOTION_DOT,MEAN_MOTION_DDOT,TLE_LINE0,TLE_LINE1,TLE_LINE2,SEMIMAJOR_AXIS,PERIOD,APOGEE,PERIGEE,DECAYED
52536.0,STARLINK-3964,PAYLOAD,2024-02-05 22:50:51,15.08841683,0.0001391,53.2183,313.1852,87.742,272.3731,6.456e-06,-1.85e-06,0.0,0 STARLINK-3964,1 52536U 22051D   24036.95198265 -.00000185  00000-0  64560-5 0  9992,2 52536  53.2183 313.1852 0001391  87.7420 272.3731 15.08841683 96295,6917.875,95.437,540.703,538.778,0.0
52536.0,STARLINK-3964,PAYLOAD,2024-02-06 03:37:00,15.08848752,0.0001477,53.2171,312.2923,85.2928,274.8233,7.5426e-05,9.13e-06,0.0,0 STARLINK-3964,1 52536U 22051D   24037.15069543  .00000913  00000-0  75426-4 0  9991,2 52536  53.2171 312.2923 0001477  85.2928 274.8233 15.08848752 96324,6917.854,95.437,540.74,538.697,0.0
52536.0,STARLINK-3964,PAYLOAD,2024-02-06 22:41:38,15.08843232,0.0001685,53.2183,308.7218,108.0132,252.1043,-1.4292e-05,-5.16e-06,0.0,0 STARLINK-3964,1 52536U 22051D   24037.94558113 -.00000516  00000-0 -14292-4 0  9999,2 52536  53.2183 308.7218 0001685 108.0132 252.1043 15.08843232 96445,6917.871,95.437,540.901,538.57,0.0
52536.0,STARLINK-3964,PAYLOAD,2024-02-07 03:27:47,15.08847524,0.0001586,53.2195,307.8267,99.0509,261.0663,3.1318e-05,2.11e-06,0.0,0 STARLINK-3964,1 52536U 22051D   24038.14429679  .00000211  00000-0  31318-4 0  9994,2 52536  53.2195 307.8267 0001586  99.0509 261.0663 15.08847524 96545,6917.857,95.437,540.82,538.625,0.0
52536.0,STARLINK-3964,PAYLOAD,2024-02-07 11:24:43,15.0883878,0.0001479,53.2195,306.3401,94.4174,265.6987,-8.3959e-06,-4.22e-06,0.0,0 STARLINK-3964,1 52536U 22051D   24038.47550281 -.00000422  00000-0 -83959-5 0  9999,2 52536  53.2195 306.3401 0001479  94.4174 265.6987 15.08838780 96595,6917.884,95.438,540.772,538.726,0.0
52536.0,STARLINK-3964,PAYLOAD,2024-02-07 20:57:02,15.08835338,0.0001559,53.2185,304.5566,110.1254,249.9906,4.5436e-06,-2.16e-06,0.0,0 STARLINK-3964,1 52536U 22051D   24038.87294504 -.00000216  00000-0  45436-5 0  9994,2 52536  53.2185 304.5566 0001559 110.1254 249.9906 15.08835338 96581,6917.895,95.438,540.838,538.681,0.0
52536.0,STARLINK-3964,PAYLOAD,2024-02-07 22:32:25,15.08835985,0.000158,53.2189,304.2592,109.4202,250.696,8.609e-06,-1.51e-06,0.0,0 STARLINK-3964,1 52536U 22051D   24038.93918477 -.00000151  00000-0  86090-5 0  9992,2 52536  53.2189 304.2592 0001580 109.4202 250.6960 15.08835985 96597,6917.893,95.438,540.851,538.665,0.0
52536.0,STARLINK-3964,PAYLOAD,2024-02-08 22:23:12,15.08816226,0.000231,53.2181,299.7974,138.6873,221.4294,0.0003099,4.644e-05,0.0,0 STARLINK-3964,1 52536U 22051D   24039.93278616  .00004644  00000-0  30990-3 0  9993,2 52536  53.2181 299.7974 0002310 138.6873 221.4294 15.08816226 96741,6917.953,95.439,541.416,538.22,0.0
52536.0,STARLINK-3964,PAYLOAD,2024-02-09 03:09:21,15.08842096,0.0001788,53.218,298.9059,127.9705,232.1449,8.6618e-06,-1.5e-06,0.0,0 STARLINK-3964,1 52536U 22051D   24040.13150296 -.00000150  00000-0  86618-5 0  9999,2 52536  53.2180 298.9059 0001788 127.9705 232.1449 15.08842096 96844,6917.874,95.437,540.976,538.502,0.0
52536.0,STARLINK-3964,PAYLOAD,2024-02-09 17:27:50,15.08839596,0.0001766,53.2177,296.2292,113.9439,246.1738,-1.614e-05,-5.45e-06,0.0,0 STARLINK-3964,1 52536U 22051D   24040.72766825 -.00000545  00000-0 -16140-4 0  9996,2 52536  53.2177 296.2292 0001766 113.9439 246.1738 15.08839596 96932,6917.882,95.438,540.968,538.525,0.0
52536.0,STARLINK-3964,PAYLOAD,2024-02-10 03:00:09,15.08840609,0.0001454,53.2177,294.4458,110.1186,249.9962,5.3654e-05,5.66e-06,0.0,0 STARLINK-3964,1 52536U 22051D   24041.12510584  .00000566  00000-0  53654-4 0  9992,2 52536  53.2177 294.4458 0001454 110.1186 249.9962 15.08840609 96924,6917.879,95.438,540.749,538.738,0.0
52536.0,STARLINK-3964,PAYLOAD,2024-02-10 20:29:24,15.08839666,0.0001555,53.2178,291.1742,114.054,246.0615,1.1448e-05,-1.06e-06,0.0,0 STARLINK-3964,1 52536U 22051D   24041.85375077 -.00000106  00000-0  11448-4 0  9994,2 52536  53.2178 291.1742 0001555 114.0540 246.0615 15.08839666 97109,6917.881,95.438,540.822,538.671,0.0
52536.0,STARLINK-3964,PAYLOAD,2024-02-10 22:04:47,15.08839576,0.0001397,53.2176,290.8767,104.5154,255.5993,8.7475e-06,-1.49e-06,0.0,0 STARLINK-3964,1 52536U 22051D   24041.91999130 -.00000149  00000-0  87475-5 0  9994,2 52536  53.2176 290.8767 0001397 104.5154 255.5993 15.08839576 97046,6917.882,95.438,540.713,538.78,0.0
52536.0,STARLINK-3964,PAYLOAD,2024-02-10 23:40:10,15.08838612,0.0001308,53.2179,290.5791,96.4015,263.7126,3.4214e-05,2.57e-06,0.0,0 STARLINK-3964,1 52536U 22051D   24041.98623138  .00000257  00000-0  34214-4 0  9994,2 52536  53.2179 290.5791 0001308  96.4015 263.7126 15.08838612 97050,6917.885,95.438,540.654,538.845,0.0
52536.0,STARLINK-3964,PAYLOAD,2024-02-11 21:55:34,15.08842874,0.0001283,53.2174,286.4165,96.0511,264.0628,4.518e-05,4.31e-06,0.0,0 STARLINK-3964,1 52536U 22051D   24042.91358902  .00000431  00000-0  45180-4 0  9990,2 52536  53.2174 286.4165 0001283  96.0511 264.0628 15.08842874 97194,6917.872,95.437,540.624,538.849,0.0
52536.0,STARLINK-3964,PAYLOAD,2024-02-12 02:41:43,15.08847033,0.0001252,53.2178,285.5261,100.2719,259.8414,8.0879e-05,1e-05,0.0,0 STARLINK-3964,1 52536U 22051D   24043.11230507  .00001000  00000-0  80879-4 0  9990,2 52536  53.2178 285.5261 0001252 100.2719 259.8414 15.08847033 97297,6917.859,95.437,540.59,538.858,0.0
52536.0,STARLINK-3964,PAYLOAD,2024-02-12 20:10:58,15.08835458,0.0001909,53.2169,282.2548,123.0939,237.0236,2.9359e-05,1.79e-06,0.0,0 STARLINK-3964,1 52536U 22051D   24043.84095674  .00000179  00000-0  29359-4 0  9996,2 52536  53.2169 282.2548 0001909 123.0939 237.0236 15.08835458 97406,6917.894,95.438,541.08,538.439,0.0
52536.0,STARLINK-3964,PAYLOAD,2024-02-12 21:46:22,15.08830402,0.0001433,53.2178,281.9625,95.6367,264.4789,-2.9082e-06,-3.34e-06,0.0,0 STARLINK-3964,1 52536U 22051D   24043.90720256 -.00000334  00000-0 -29082-5 0  9993,2 52536  53.2178 281.9625 0001433  95.6367 264.4789 15.08830402 97343,6917.91,95.438,540.766,538.783,0.0
52536.0,STARLINK-3964,PAYLOAD,2024-02-13 08:54:04,15.08836656,0.0001423,53.2176,279.8802,88.6247,271.4908,6.6815e-05,7.75e-06,0.0,0 STARLINK-3964,1 52536U 22051D   24044.37088020  .00000775  00000-0  66815-4 0  9992,2 52536  53.2176 279.8802 0001423  88.6247 271.4908 15.08836656 97418,6917.891,95.438,540.74,538.771,0.0
52536.0,STARLINK-3964,PAYLOAD,2024-02-13 21:37:08,15.08846994,0.0001228,53.2159,277.5009,81.8038,278.3093,8.2284e-05,1.022e-05,0.0,0 STARLINK-3964,1 52536U 22051D   24044.90079477  .00001022  00000-0  82284-4 0  9991,2 52536  53.2159 277.5009 0001228  81.8038 278.3093 15.08846994 97494,6917.859,95.437,540.574,538.874,0.0
52536.0,STARLINK-3964,PAYLOAD,2024-02-13 23:12:31,15.08845557,0.0001335,53.2152,277.2037,84.0483,276.0661,0.00015339,2.154e-05,0.0,0 STARLINK-3964,1 52536U 22051D   24044.96703551  .00002154  00000-0  15339-3 0  9997,2 52536  53.2152 277.2037 0001335  84.0483 276.0661 15.08845557 97572,6917.863,95.437,540.652,538.805,0.0
52536.0,STARLINK-3964,PAYLOAD,2024-02-14 15:06:23,15.08844897,0.0001487,53.2152,274.2325,77.5465,282.5693,0.00030267,4.533e-05,0.0,0 STARLINK-3964,1 52536U 22051D   24045.62943703  .00004533  00000-0  30267-3 0  9996,2 52536  53.2152 274.2325 0001487  77.5465 282.5693 15.08844897 97601,6917.865,95.437,540.759,538.702,0.0
52536.0,STARLINK-3964,PAYLOAD,2024-02-14 21:27:55,15.08850798,0.0001482,53.2162,273.0405,89.9817,270.1345,0.00028421,4.239e-05,0.0,0 STARLINK-3964,1 52536U 22051D   24045.89439326  .00004239  00000-0  28421-3 0  9998,2 52536  53.2162 273.0405 0001482  89.9817 270.1345 15.08850798 97649,6917.847,95.437,540.738,538.687,0.0
52536.0,STARLINK-3964,PAYLOAD,2024-02-15 00:38:41,15.08853954,0.0001512,53.2162,272.4457,90.8196,269.2969,0.00032452,4.882e-05,0.0,0 STARLINK-3964,1 52536U 22051D   24046.02687126  .00004882  00000-0  32452-3 0  9990,2 52536  53.2162 272.4457 0001512  90.8196 269.2969 15.08853954 97732,6917.838,95.437,540.749,538.657,0.0
52536.0,STARLINK-3964,PAYLOAD,2024-02-15 19:43:19,15.08842096,0.000144,53.2152,268.8796,76.7781,283.3371,9.234e-05,1.182e-05,0.0,0 STARLINK-3964,1 52536U 22051D   24046.82175721  .00001182  00000-0  92340-4 0  9994,2 52536  53.2152 268.8796 0001440  76.7781 283.3371 15.08842096 97851,6917.874,95.437,540.735,538.743,0.0
52536.0,STARLINK-3964,PAYLOAD,2024-02-15 21:18:42,15.08844289,0.0001426,53.2159,268.5805,86.2121,273.9034,7.4728e-05,9.02e-06,0.0,0 STARLINK-3964,1 52536U 22051D   24046.88799528  .00000902  00000-0  74728-4 0  9996,2 52536  53.2159 268.5805 0001426  86.2121 273.9034 15.08844289 97794,6917.867,95.437,540.719,538.746,0.0
52536.0,STARLINK-3964,PAYLOAD,2024-02-16 00:29:28,15.08845554,0.0001434,53.2153,267.9848,85.2855,274.8301,0.00011512,1.545e-05,0.0,0 STARLINK-3964,1 52536U 22051D   24047.02047386  .00001545  00000-0  11512-3 0  9996,2 52536  53.2153 267.9848 0001434  85.2855 274.8301 15.08845554 97816,6917.863,95.437,540.72,538.736,0.0
52536.0,STARLINK-3964,PAYLOAD,2024-02-16 21:09:29,15.08846297,0.0001424,53.2157,264.1164,89.0326,271.0829,0.00012754,1.743e-05,0.0,0 STARLINK-3964,1 52536U 22051D   24047.88159227  .00001743  00000-0  12754-3 0  9997,2 52536  53.2157 264.1164 0001424  89.0326 271.0829 15.08846297 97947,6917.861,95.437,540.711,538.741,0.0
52536.0,STARLINK-3964,PAYLOAD,2024-02-17 00:20:15,15.08847178,0.0001399,53.2158,263.5214,89.4331,270.6821,0.0001568,2.209e-05,0.0,0 STARLINK-3964,1 52536U 22051D   24048.01407161  .00002209  00000-0  15680-3 0  9995,2 52536  53.2158 263.5214 0001399  89.4331 270.6821 15.08847178 98035,6917.858,95.437,540.691,538.756,0.0
52536.0,STARLINK-3964,PAYLOAD,2024-02-17 19:24:54,15.088351,0.0001447,53.2158,259.9515,89.791,270.3248,3.2473e-05,2.29e-06,0.0,0 STARLINK-3964,1 52536U 22051D   24048.80895837  .00000229  00000-0  32473-4 0  9993,2 52536  53.2158 259.9515 0001447  89.7910 270.3248 15.08835100 98153,6917.895,95.438,540.761,538.759,0.0
